NORAD_CAT_ID,OBJECT_NAME,OBJECT_TYPE,EPOCH,MEAN_MOTION,ECCENTRICITY,INCLINATION,RA_OF_ASC_NODE,ARG_OF_PERICENTER,MEAN_ANOMALY,BSTAR,MEAN_MOTION_DOT,MEAN_MOTION_DDOT,TLE_LINE0,TLE_LINE1,TLE_LINE2,SEMIMAJOR_AXIS,PERIOD,APOGEE,PERIGEE,DECAYED
55644.0,STARLINK-5502,PAYLOAD,2024-05-16 04:31:55,14.98349747,0.0002547,70.0015,54.9199,276.9239,83.163,-0.00017132,-2.137e-05,0.0,0 STARLINK-5502,1 55644U 23021S   24137.18883923 -.00002137  00000-0 -17132-3 0  9993,2 55644  70.0015  54.9199 0002547 276.9239  83.1630 14.98349747 69251,6950.132,96.106,573.767,570.227,0.0
55644.0,STARLINK-5502,PAYLOAD,2024-05-17 04:33:54,14.98366618,0.000265,70.003,52.3929,274.5406,85.545,-0.00029169,-3.575e-05,0.0,0 STARLINK-5502,1 55644U 23021S   24138.19021651 -.00003575  00000-0 -29169-3 0  9997,2 55644  70.0030  52.3929 0002650 274.5406  85.5450 14.98366618 69405,6950.08,96.105,573.786,570.103,0.0
55644.0,STARLINK-5502,PAYLOAD,2024-05-17 17:23:01,14.98317585,0.0002598,70.0017,51.0493,276.509,83.5773,-9.8628e-05,-1.269e-05,0.0,0 STARLINK-5502,1 55644U 23021S   24138.72431919 -.00001269  00000-0 -98628-4 0  9993,2 55644  70.0017  51.0493 0002598 276.5090  83.5773 14.98317585 69487,6950.231,96.108,573.902,570.291,0.0
55644.0,STARLINK-5502,PAYLOAD,2024-05-17 22:11:25,14.98314426,0.0002863,70.0012,50.5433,276.2647,83.8186,-0.00013096,-1.655e-05,0.0,0 STARLINK-5502,1 55644U 23021S   24138.92460320 -.00001655  00000-0 -13096-3 0  9997,2 55644  70.0012  50.5433 0002863 276.2647  83.8186 14.98314426 69819,6950.241,96.108,574.096,570.116,0.0
55644.0,STARLINK-5502,PAYLOAD,2024-05-18 04:35:57,14.98344488,0.0003065,70.0025,49.8687,271.1289,88.9519,-0.00044474,-5.397e-05,0.0,0 STARLINK-5502,1 55644U 23021S   24139.19163272 -.00005397  00000-0 -44474-3 0  9994,2 55644  70.0025  49.8687 0003065 271.1289  88.9519 14.98344488 69554,6950.148,96.106,574.143,569.883,0.0
55644.0,STARLINK-5502,PAYLOAD,2024-05-18 11:00:29,14.98331786,0.0002787,70.0013,49.196,273.403,86.681,9.5182e-06,2.1e-07,0.0,0 STARLINK-5502,1 55644U 23021S   24139.45867111  .00000021  00000-0  95182-5 0  9997,2 55644  70.0013  49.1960 0002787 273.4030  86.6810 14.98331786 69890,6950.187,96.107,573.989,570.115,0.0
55644.0,STARLINK-5502,PAYLOAD,2024-05-18 22:13:25,14.9834173,0.0003021,70.001,48.0178,270.1858,89.8955,-9.4425e-05,-1.22e-05,0.0,0 STARLINK-5502,1 55644U 23021S   24139.92598666 -.00001220  00000-0 -94425-4 0  9997,2 55644  70.0010  48.0178 0003021 270.1858  89.8955 14.98341730 69963,6950.157,96.106,574.121,569.922,0.0
55644.0,STARLINK-5502,PAYLOAD,2024-05-19 03:01:48,14.98351747,0.0002965,70.0007,47.5127,269.3788,90.7031,1.3906e-05,7.3e-07,0.0,0 STARLINK-5502,1 55644U 23021S   24140.12625534  .00000073  00000-0  13906-4 0  9994,2 55644  70.0007  47.5127 0002965 269.3788  90.7031 14.98351747 69690,6950.126,96.106,574.051,569.93,0.0
55644.0,STARLINK-5502,PAYLOAD,2024-05-19 20:39:19,14.9831438,0.000315,70.0006,45.6607,280.7278,79.3526,6.131e-05,6.38e-06,0.0,0 STARLINK-5502,1 55644U 23021S   24140.86064114  .00000638  00000-0  61310-4 0  9995,2 55644  70.0006  45.6607 0003150 280.7278  79.3526 14.98314380 69806,6950.241,96.108,574.296,569.917,0.0
55644.0,STARLINK-5502,PAYLOAD,2024-05-20 03:03:51,14.98318367,0.000275,70.0011,44.9876,270.8465,89.2379,0.0001028,1.133e-05,0.0,0 STARLINK-5502,1 55644U 23021S   24141.12767904  .00001133  00000-0  10280-3 0  9992,2 55644  70.0011  44.9876 0002750 270.8465  89.2379 14.98318367 70149,6950.229,96.108,574.005,570.183,0.0
55644.0,STARLINK-5502,PAYLOAD,2024-05-20 20:41:19,14.98328438,0.0003022,70.0008,43.1354,272.3574,87.7239,3.1878e-06,-5.5e-07,0.0,0 STARLINK-5502,1 55644U 23021S   24141.86203680 -.00000055  00000-0  31878-5 0  9990,2 55644  70.0008  43.1354 0003022 272.3574  87.7239 14.98328438 69953,6950.198,96.107,574.163,569.962,0.0
55644.0,STARLINK-5502,PAYLOAD,2024-05-21 03:05:51,14.98336999,0.000283,70.0011,42.4631,268.7113,91.3722,5.2402e-05,5.32e-06,0.0,0 STARLINK-5502,1 55644U 23021S   24142.12907001  .00000532  00000-0  52402-4 0  9992,2 55644  70.0011  42.4631 0002830 268.7113  91.3722 14.98336999 69994,6950.171,96.107,574.003,570.069,0.0
55644.0,STARLINK-5502,PAYLOAD,2024-05-21 20:43:20,14.98326927,0.0002833,70.0012,40.6139,267.5307,92.5528,0.00015807,1.793e-05,0.0,0 STARLINK-5502,1 55644U 23021S   24142.86343230  .00001793  00000-0  15807-3 0  9998,2 55644  70.0012  40.6139 0002833 267.5307  92.5528 14.98326927 70105,6950.202,96.107,574.036,570.098,0.0
55644.0,STARLINK-5502,PAYLOAD,2024-05-21 22:19:28,14.98327646,0.0002913,70.0012,40.4463,269.7331,90.3494,0.00015909,1.806e-05,0.0,0 STARLINK-5502,1 55644U 23021S   24142.93019199  .00001806  00000-0  15909-3 0  9998,2 55644  70.0012  40.4463 0002913 269.7331  90.3494 14.98327646 70414,6950.2,96.107,574.09,570.041,0.0
55644.0,STARLINK-5502,PAYLOAD,2024-05-22 03:07:52,14.98331328,0.0002887,70.0012,39.9418,268.6248,91.458,0.00021525,2.476e-05,0.0,0 STARLINK-5502,1 55644U 23021S   24143.13046808  .00002476  00000-0  21525-3 0  9993,2 55644  70.0012  39.9418 0002887 268.6248  91.4580 14.98331328 70445,6950.189,96.107,574.06,570.047,0.0
55644.0,STARLINK-5502,PAYLOAD,2024-05-22 20:45:20,14.98347964,0.0002868,70.0013,38.0893,269.6115,90.4715,9.3203e-05,1.02e-05,0.0,0 STARLINK-5502,1 55644U 23021S   24143.86481644  .00001020  00000-0  93203-4 0  9991,2 55644  70.0013  38.0893 0002868 269.6115  90.4715 14.98347964 70257,6950.137,96.106,573.996,570.009,0.0
55644.0,STARLINK-5502,PAYLOAD,2024-05-23 03:09:51,14.98353325,0.0002793,70.0013,37.415,265.6472,94.4368,0.00015278,1.732e-05,0.0,0 STARLINK-5502,1 55644U 23021S   24144.13184771  .00001732  00000-0  15278-3 0  9998,2 55644  70.0013  37.4150 0002793 265.6472  94.4368 14.98353325 70295,6950.121,96.106,573.927,570.045,0.0
55644.0,STARLINK-5502,PAYLOAD,2024-05-23 20:47:22,14.98326721,0.0002624,70.0013,35.5647,257.0212,103.0654,-0.00011273,-1.438e-05,0.0,0 STARLINK-5502,1 55644U 23021S   24144.86622976 -.00001438  00000-0 -11273-3 0  9998,2 55644  70.0013  35.5647 0002624 257.0212 103.0654 14.98326721 70403,6950.203,96.107,573.892,570.244,0.0
55644.0,STARLINK-5502,PAYLOAD,2024-05-24 03:11:54,14.98325329,0.0002415,70.0014,34.8901,248.3522,111.738,-5.9856e-05,-8.07e-06,0.0,0 STARLINK-5502,1 55644U 23021S   24145.13326983 -.00000807  00000-0 -59856-4 0  9997,2 55644  70.0014  34.8901 0002415 248.3522 111.7380 14.98325329 70746,6950.207,96.107,573.751,570.394,0.0
55644.0,STARLINK-5502,PAYLOAD,2024-05-24 20:49:23,14.98334232,0.0002805,70.0007,33.0376,259.4045,100.6798,-0.00022767,-2.809e-05,0.0,0 STARLINK-5502,1 55644U 23021S   24145.86762801 -.00002809  00000-0 -22767-3 0  9994,2 55644  70.0007  33.0376 0002805 259.4045 100.6798 14.98334232 70553,6950.18,96.107,573.994,570.095,0.0
55644.0,STARLINK-5502,PAYLOAD,2024-05-24 22:25:29,14.98348565,0.0002854,70.0014,32.8722,267.7784,92.3048,2.1822e-05,1.68e-06,0.0,0 STARLINK-5502,1 55644U 23021S   24145.93437312  .00000168  00000-0  21822-4 0  9994,2 55644  70.0014  32.8722 0002854 267.7784  92.3048 14.98348565 70862,6950.135,96.106,573.984,570.017,0.0
55644.0,STARLINK-5502,PAYLOAD,2024-05-25 09:38:27,14.98335685,0.0002711,70.001,31.6904,267.2523,92.8326,-0.00016418,-2.052e-05,0.0,0 STARLINK-5502,1 55644U 23021S   24146.40170320 -.00002052  00000-0 -16418-3 0  9990,2 55644  70.0010  31.6904 0002711 267.2523  92.8326 14.98335685 70936,6950.175,96.107,573.925,570.156,0.0
55644.0,STARLINK-5502,PAYLOAD,2024-05-25 20:51:24,14.98317186,0.0002705,70.001,30.5127,267.4793,92.6056,5.9061e-05,6.12e-06,0.0,0 STARLINK-5502,1 55644U 23021S   24146.86903345  .00000612  00000-0  59061-4 0  9991,2 55644  70.0010  30.5127 0002705 267.4793  92.6056 14.98317186 70704,6950.233,96.108,573.978,570.217,0.0
55644.0,STARLINK-5502,PAYLOAD,2024-05-26 01:39:48,14.98322422,0.000284,70.0006,30.0082,264.7039,95.3796,3.7443e-05,3.54e-06,0.0,0 STARLINK-5502,1 55644U 23021S   24147.06931149  .00000354  00000-0  37443-4 0  9990,2 55644  70.0006  30.0082 0002840 264.7039  95.3796 14.98322422 71034,6950.216,96.107,574.055,570.107,0.0
55644.0,STARLINK-5502,PAYLOAD,2024-05-26 20:53:25,14.98327981,0.0003048,70.0003,27.9873,267.0048,93.0762,8.9005e-05,9.69e-06,0.0,0 STARLINK-5502,1 55644U 23021S   24147.87042838  .00000969  00000-0  89005-4 0  9990,2 55644  70.0003  27.9873 0003048 267.0048  93.0762 14.98327981 70853,6950.199,96.107,574.183,569.946,0.0
55644.0,STARLINK-5502,PAYLOAD,2024-05-26 22:29:32,14.98329653,0.0003101,70.0007,27.8202,269.6503,90.43,0.00011573,1.288e-05,0.0,0 STARLINK-5502,1 55644U 23021S   24147.93718677  .00001288  00000-0  11573-3 0  9997,2 55644  70.0007  27.8202 0003101 269.6503  90.4300 14.98329653 71168,6950.194,96.107,574.214,569.904,0.0
55644.0,STARLINK-5502,PAYLOAD,2024-05-27 14:30:53,14.98324335,0.0002981,70.0007,26.1346,266.6808,93.401,0.00011386,1.266e-05,0.0,0 STARLINK-5502,1 55644U 23021S   24148.60478909  .00001266  00000-0  11386-3 0  9991,2 55644  70.0007  26.1346 0002981 266.6808  93.4010 14.98324335 71263,6950.21,96.107,574.147,570.004,0.0
55644.0,STARLINK-5502,PAYLOAD,2024-05-27 22:31:34,14.98327144,0.0002942,70.0005,25.2942,264.7109,95.3714,4.7778e-05,4.77e-06,0.0,0 STARLINK-5502,1 55644U 23021S   24148.93858983  .00000477  00000-0  47778-4 0  9999,2 55644  70.0005  25.2942 0002942 264.7109  95.3714 14.98327144 71312,6950.202,96.107,574.111,570.022,0.0
55644.0,STARLINK-5502,PAYLOAD,2024-05-28 01:43:50,14.98328878,0.0002932,70.0006,24.9576,264.6694,95.413,6.4155e-05,6.73e-06,0.0,0 STARLINK-5502,1 55644U 23021S   24149.07210836  .00000673  00000-0  64155-4 0  9990,2 55644  70.0006  24.9576 0002932 264.6694  95.4130 14.98328878 71036,6950.196,96.107,574.099,570.024,0.0
55644.0,STARLINK-5502,PAYLOAD,2024-05-28 22:33:34,14.98333385,0.0002876,70.0009,22.7697,265.0037,95.0794,-1.463e-05,-2.68e-06,0.0,0 STARLINK-5502,1 55644U 23021S   24149.93998665 -.00000268  00000-0 -14630-4 0  9993,2 55644  70.0009  22.7697 0002876 265.0037  95.0794 14.98333385 71460,6950.182,96.107,574.046,570.049,0.0
